TISAT 1                 
1 36799U 10035E   26068.75703561  .00024554  00000+0  91005-3 0  9996
2 36799  98.0645   6.8512 0001343 159.3030 200.8262 15.27628633852505
STARLINK-31892          
1 59853U 24097U   26068.55491966 -.00000933  00000+0 -24376-4 0  9991
2 59853  43.0015 275.3387 0001318 275.6883  84.3818 15.27575099101893
